IRIDIUM 57              
1 25273U 98019B   25008.57814497  .00000611  00000+0  20501-3 0  9994
2 25273  86.3961 212.0671 0001935  89.6055 270.5363 14.35677695401884
IRIDIUM 63              
1 25286U 98021B   25008.44809230  .00001083  00000+0  36401-3 0  9996
2 25286  86.4018 149.1149 0002158  90.6268 269.5176 14.36309626400918
IRIDIUM 69              
1 25319U 98026A   25008.46163738  .00001427  00000+0  44119-3 0  9993
2 25319  86.4011 162.8629 0002758 146.9340 213.2032 14.40658762400061
IRIDIUM 71              
1 25320U 98026B   25008.49126761  .00001130  00000+0  34643-3 0  9995
2 25320  86.4011 157.5764 0000633 186.3733 173.7459 14.40892794400594
IRIDIUM 73              
1 25344U 98032C   25008.54325121  .00001406  00000+0  34805-3 0  9991
2 25344  86.4430 114.6287 0002284 110.7225 249.4225 14.51333060407407
IRIDIUM 82              
1 25467U 98051A   25008.55724491  .00029602  00000+0  11185-2 0  9995
2 25467  86.3729 187.5393 0103247 178.2019 181.9619 15.21901843399596
